[{"OBJECT_NAME":"STARLINK-6192","OBJECT_ID":"2023-083AD","EPOCH":"2026-03-09T22:00:01.999584","MEAN_MOTION":15.1488328,"ECCENTRICITY":0.00021062,"INCLINATION":43.0015,"RA_OF_ASC_NODE":79.7592,"ARG_OF_PERICENTER":275.013,"MEAN_ANOMALY":85.6759,"EPHEMERIS_TYPE":0,"CLASSIFICATION_TYPE":"U","NORAD_CAT_ID":56903,"ELEMENT_SET_NO":999,"REV_AT_EPOCH":557,"BSTAR":0.066421803,"MEAN_MOTION_DOT":0.01370336,"MEAN_MOTION_DDOT":0},{"OBJECT_NAME":"PELICAN-2","OBJECT_ID":"2025-009Y","EPOCH":"2026-03-09T17:25:39.993312","MEAN_MOTION":15.4033695,"ECCENTRICITY":0.00075715,"INCLINATION":97.4014,"RA_OF_ASC_NODE":159.0326,"ARG_OF_PERICENTER":210.4407,"MEAN_ANOMALY":149.6401,"EPHEMERIS_TYPE":0,"CLASSIFICATION_TYPE":"U","NORAD_CAT_ID":62631,"ELEMENT_SET_NO":999,"REV_AT_EPOCH":6424,"BSTAR":0.0018185571,"MEAN_MOTION_DOT":0.00073958,"MEAN_MOTION_DDOT":0}]
